{
  "type": "FeatureCollection",
  "features": [
    {
      "type": "Feature",
      "properties": {
        "norad_id": 30396,
        "name": "FENGYUN 1C DEB",
        "group": "fengyun-1c-debris",
        "lat": 6.786249916943067,
        "lon": 1.0952251610613077,
        "alt_km": 938.9500548200831,
        "timestamp": "2025-12-24T16:52:41.808234+00:00",
        "meta_object_name": "FENGYUN 1C DEB",
        "meta_object_id": "1999-025ADK",
        "meta_epoch": "2025-12-23T16:53:42.535392",
        "meta_mean_motion": 13.87172036,
        "meta_eccentricity": 0.01352414,
        "meta_inclination": 98.2239,
        "meta_ra_of_asc_node": 1.2014,
        "meta_arg_of_pericenter": 99.6021,
        "meta_mean_anomaly": 321.3731,
        "meta_ephemeris_type": 0,
        "meta_classification_type": "U",
        "meta_norad_cat_id": 30396,
        "meta_element_set_no": 999,
        "meta_rev_at_epoch": 95731,
        "meta_bstar": 0.00011469343,
        "meta_mean_motion_dot": 1.1e-06,
        "meta_mean_motion_ddot": 0,
        "tle_line1": "1 30396U 99025ADK 25357.70396453  .00000110  00000+0  11469-3 0  9990",
        "tle_line2": "2 30396  98.2239   1.2014 0135241  99.6021 321.3731 13.87172036957310"
      },
      "geometry": {
        "type": "Point",
        "coordinates": [
          1.0952251610613077,
          6.786249916943067
        ]
      }
    },
    {
      "type": "Feature",
      "properties": {
        "norad_id": 30397,
        "name": "FENGYUN 1C DEB",
        "group": "fengyun-1c-debris",
        "lat": 25.003274352140973,
        "lon": 141.96630504183724,
        "alt_km": 806.6062889237073,
        "timestamp": "2025-12-24T16:52:41.808244+00:00",
        "meta_object_name": "FENGYUN 1C DEB",
        "meta_object_id": "1999-025ADL",
        "meta_epoch": "2025-12-23T22:26:08.015136",
        "meta_mean_motion": 13.98622583,
        "meta_eccentricity": 0.014949,
        "meta_inclination": 98.406,
        "meta_ra_of_asc_node": 145.2157,
        "meta_arg_of_pericenter": 61.1182,
        "meta_mean_anomaly": 58.2077,
        "meta_ephemeris_type": 0,
        "meta_classification_type": "U",
        "meta_norad_cat_id": 30397,
        "meta_element_set_no": 999,
        "meta_rev_at_epoch": 95921,
        "meta_bstar": 0.0011018,
        "meta_mean_motion_dot": 1.702e-05,
        "meta_mean_motion_ddot": 0,
        "tle_line1": "1 30397U 99025ADL 25357.93481499  .00001702  00000+0  11018-2 0  9998",
        "tle_line2": "2 30397  98.4060 145.2157 0149490  61.1182  58.2077 13.98622583959214"
      },
      "geometry": {
        "type": "Point",
        "coordinates": [
          141.96630504183724,
          25.003274352140973
        ]
      }
    },
    {
      "type": "Feature",
      "properties": {
        "norad_id": 30398,
        "name": "FENGYUN 1C DEB",
        "group": "fengyun-1c-debris",
        "lat": -49.57174315305321,
        "lon": -92.87988961823584,
        "alt_km": 884.1324989712857,
        "timestamp": "2025-12-24T16:52:41.808255+00:00",
        "meta_object_name": "FENGYUN 1C DEB",
        "meta_object_id": "1999-025ADM",
        "meta_epoch": "2025-12-23T06:54:53.150688",
        "meta_mean_motion": 13.78708382,
        "meta_eccentricity": 0.01724752,
        "meta_inclination": 99.7144,
        "meta_ra_of_asc_node": 254.071,
        "meta_arg_of_pericenter": 268.4866,
        "meta_mean_anomaly": 219.4707,
        "meta_ephemeris_type": 0,
        "meta_classification_type": "U",
        "meta_norad_cat_id": 30398,
        "meta_element_set_no": 999,
        "meta_rev_at_epoch": 94902,
        "meta_bstar": 0.00041959162,
        "meta_mean_motion_dot": 4.28e-06,
        "meta_mean_motion_ddot": 0,
        "tle_line1": "1 30398U 99025ADM 25357.28811517  .00000428  00000+0  41959-3 0  9997",
        "tle_line2": "2 30398  99.7144 254.0710 0172475 268.4866 219.4707 13.78708382949025"
      },
      "geometry": {
        "type": "Point",
        "coordinates": [
          -92.87988961823584,
          -49.57174315305321
        ]
      }
    },
    {
      "type": "Feature",
      "properties": {
        "norad_id": 30400,
        "name": "FENGYUN 1C DEB",
        "group": "fengyun-1c-debris",
        "lat": 43.84131982977053,
        "lon": -82.46007675486196,
        "alt_km": 885.6058930941117,
        "timestamp": "2025-12-24T16:52:41.808265+00:00",
        "meta_object_name": "FENGYUN 1C DEB",
        "meta_object_id": "1999-025ADP",
        "meta_epoch": "2025-12-23T07:24:47.060928",
        "meta_mean_motion": 14.1014906,
        "meta_eccentricity": 0.02257656,
        "meta_inclination": 99.1564,
        "meta_ra_of_asc_node": 285.0302,
        "meta_arg_of_pericenter": 306.4764,
        "meta_mean_anomaly": 220.8162,
        "meta_ephemeris_type": 0,
        "meta_classification_type": "U",
        "meta_norad_cat_id": 30400,
        "meta_element_set_no": 999,
        "meta_rev_at_epoch": 95663,
        "meta_bstar": 0.0042179226,
        "meta_mean_motion_dot": 9.422e-05,
        "meta_mean_motion_ddot": 0,
        "tle_line1": "1 30400U 99025ADP 25357.30887802  .00009422  00000+0  42179-2 0  9991",
        "tle_line2": "2 30400  99.1564 285.0302 0225765 306.4764 220.8162 14.10149060956636"
      },
      "geometry": {
        "type": "Point",
        "coordinates": [
          -82.46007675486196,
          43.84131982977053
        ]
      }
    },
    {
      "type": "Feature",
      "properties": {
        "norad_id": 30401,
        "name": "FENGYUN 1C DEB",
        "group": "fengyun-1c-debris",
        "lat": 62.863419875413,
        "lon": 73.7863340795031,
        "alt_km": 720.483805763105,
        "timestamp": "2025-12-24T16:52:41.808275+00:00",
        "meta_object_name": "FENGYUN 1C DEB",
        "meta_object_id": "1999-025ADQ",
        "meta_epoch": "2025-12-24T02:53:36.619872",
        "meta_mean_motion": 14.28000013,
        "meta_eccentricity": 0.01081343,
        "meta_inclination": 98.9468,
        "meta_ra_of_asc_node": 235.2891,
        "meta_arg_of_pericenter": 94.7477,
        "meta_mean_anomaly": 266.6061,
        "meta_ephemeris_type": 0,
        "meta_classification_type": "U",
        "meta_norad_cat_id": 30401,
        "meta_element_set_no": 999,
        "meta_rev_at_epoch": 98466,
        "meta_bstar": 0.00014293158,
        "meta_mean_motion_dot": 3.32e-06,
        "meta_mean_motion_ddot": 0,
        "tle_line1": "1 30401U 99025ADQ 25358.12056273  .00000332  00000+0  14293-3 0  9991",
        "tle_line2": "2 30401  98.9468 235.2891 0108134  94.7477 266.6061 14.28000013984668"
      },
      "geometry": {
        "type": "Point",
        "coordinates": [
          73.7863340795031,
          62.863419875413
        ]
      }
    },
    {
      "type": "Feature",
      "properties": {
        "norad_id": 30403,
        "name": "FENGYUN 1C DEB",
        "group": "fengyun-1c-debris",
        "lat": 10.277792855168597,
        "lon": 75.78481035095,
        "alt_km": 771.8540346177351,
        "timestamp": "2025-12-24T16:52:41.808286+00:00",
        "meta_object_name": "FENGYUN 1C DEB",
        "meta_object_id": "1999-025ADS",
        "meta_epoch": "2025-12-24T05:00:22.131936",
        "meta_mean_motion": 14.21619289,
        "meta_eccentricity": 0.0074434,
        "meta_inclination": 99.0586,
        "meta_ra_of_asc_node": 76.935,
        "meta_arg_of_pericenter": 349.2148,
        "meta_mean_anomaly": 10.7429,
        "meta_ephemeris_type": 0,
        "meta_classification_type": "U",
        "meta_norad_cat_id": 30403,
        "meta_element_set_no": 999,
        "meta_rev_at_epoch": 96969,
        "meta_bstar": 0.0019228399,
        "meta_mean_motion_dot": 4.293e-05,
        "meta_mean_motion_ddot": 0,
        "tle_line1": "1 30403U 99025ADS 25358.20858949  .00004293  00000+0  19228-2 0  9994",
        "tle_line2": "2 30403  99.0586  76.9350 0074434 349.2148  10.7429 14.21619289969697"
      },
      "geometry": {
        "type": "Point",
        "coordinates": [
          75.78481035095,
          10.277792855168597
        ]
      }
    },
    {
      "type": "Feature",
      "properties": {
        "norad_id": 30404,
        "name": "FENGYUN 1C DEB",
        "group": "fengyun-1c-debris",
        "lat": -72.91131907653308,
        "lon": 124.3729938592061,
        "alt_km": 1419.5362590962868,
        "timestamp": "2025-12-24T16:52:41.808297+00:00",
        "meta_object_name": "FENGYUN 1C DEB",
        "meta_object_id": "1999-025ADT",
        "meta_epoch": "2025-12-19T23:54:32.428224",
        "meta_mean_motion": 13.34354549,
        "meta_eccentricity": 0.03762973,
        "meta_inclination": 99.8326,
        "meta_ra_of_asc_node": 85.5019,
        "meta_arg_of_pericenter": 119.2039,
        "meta_mean_anomaly": 244.7273,
        "meta_ephemeris_type": 0,
        "meta_classification_type": "U",
        "meta_norad_cat_id": 30404,
        "meta_element_set_no": 999,
        "meta_rev_at_epoch": 58133,
        "meta_bstar": 0.00058436057,
        "meta_mean_motion_dot": 3.95e-06,
        "meta_mean_motion_ddot": 0,
        "tle_line1": "1 30404U 99025ADT 25353.99620866  .00000395  00000+0  58436-3 0  9995",
        "tle_line2": "2 30404  99.8326  85.5019 0376297 119.2039 244.7273 13.34354549581337"
      },
      "geometry": {
        "type": "Point",
        "coordinates": [
          124.3729938592061,
          -72.91131907653308
        ]
      }
    }
  ]
}